STARLINK-5179           
1 54102U 22136BD  26068.88811480 -.00003302  00000+0 -18953-3 0  9994
2 54102  53.2184 333.2456 0001566 125.2828 234.8311 15.08825780187012
LEMUR-2-AHMED-ASRAR     
1 60576U 24149DN  26068.73265438  .00013045  00000+0  79773-3 0  9992
2 60576  97.7021 152.9847 0001633  18.5035 341.6253 15.10376432 85541
